[Satellite]
VERSION=1.1
NAME=ECHOSTAR 3
NICKNAME=ECHOSTAR 3
TLE1=1 25004U 97059A   17185.60760416 -.00000290  00000-0  00000-0 0  9995
TLE2=2 25004   2.1921  80.2281 0001540  40.5215 318.9721  1.00274145 72279
